{
  "type": "FeatureCollection",
  "features": [
    {
      "type": "Feature",
      "properties": {
        "Name": "CanadaWest",
        "color": "#1565c0"
      },
      "geometry": {
        "type": "Polygon",
        "coordinates": [
          [
            [
              -128.3275701841646,
              51.74644298793831
            ],
            [
              -128.5051574780841,
              50.6965203342824
            ],
            [
              -126.6590135549229,
              49.36119823007385
            ],
            [
              -124.7787386251649,
              48.49887722323094
            ],
            [
              -124.0102039987663,
              48.29764556482642
            ],
            [
              -123.5366657763374,
              48.2259741561486
            ],
            [
              -123.2531246337419,
              48.27977113568258
            ],
            [
              -123.12009986073,
              48.42826323966822
            ],
            [
              -123.1674156166167,
              48.45184013305424
            ],
            [
              -123.2653310132578,
              48.69001879257381
            ],
            [
              -123.0115042538527,
              48.76510865843043
            ],
            [
              -123.0027372279147,
              48.83213706367363
            ],
            [
              -123.3293152119918,
              48.99261276371701
            ],
            [
              -110.0062519128954,
              48.99999660941567
            ],
            [
              -110.0018309059487,
              59.99957200382634
            ],
            [
              -139.0552340049808,
              60.00036197203067
            ],
            [
              -138.7051420488519,
              59.90652656765587
            ],
            [
              -138.6583464152296,
              59.78733357937838
            ],
            [
              -137.6054228232843,
              59.23320999015846
            ],
            [
              -137.503334399968,
              58.97894218610834
            ],
            [
              -137.5211710050439,
              58.90977291217311
            ],
            [
              -137.450499663789,
              58.90678670314168
            ],
            [
              -137.2967429780246,
              58.99560765289199
            ],
            [
              -136.8196252632675,
              59.16222819641536
            ],
            [
              -136.5821392094231,
              59.16816893896343
            ],
            [
              -136.4723544007317,
              59.28553143588132
            ],
            [
              -136.4779265549187,
              59.45817550339182
            ],
            [
              -136.3315438944689,
              59.58394025433664
            ],
            [
              -135.4599875181968,
              59.78576524300773
            ],
            [
              -135.0375306122107,
              59.53547066239111
            ],
            [
              -134.9350110474215,
              59.26475086744545
            ],
            [
              -134.4650592646412,
              59.11983812842941
            ],
            [
              -134.2801998941907,
              58.87116940822197
            ],
            [
              -133.7711312418617,
              58.70541419280924
            ],
            [
              -133.4430977222311,
              58.38371487038442
            ],
            [
              -132.2225679278103,
              57.20926537384911
            ],
            [
              -131.771960595459,
              56.60978528119337
            ],
            [
              -130.0368828927433,
              56.02640763393026
            ],
            [
              -130.0999490590583,
              55.50989710874635
            ],
            [
              -129.9501989774554,
              55.27111997508078
            ],
            [
              -131.0235657612126,
              54.47230536560397
            ],
            [
              -130.6360861813092,
              53.53455682941745
            ],
            [
              -128.3275701841646,
              51.74644298793831
            ]
          ]
        ]
      }
    },
    {
      "type": "Feature",
      "properties": {
        "Name": "PacificNW",
        "color": "#1b5e20"
      },
      "geometry": {
        "type": "Polygon",
        "coordinates": [
          [
            [
              -124.0534614044073,
              46.56430774656032
            ],
            [
              -123.9967888503493,
              45.79631114642938
            ],
            [
              -124.0547078753673,
              44.67933543580104
            ],
            [
              -124.2896850102616,
              43.371186633617
            ],
            [
              -124.566439460657,
              42.8169585124817
            ],
            [
              -124.3665535134767,
              42.11951257294407
            ],
            [
              -124.0606399713852,
              41.47323412024302
            ],
            [
              -123.6278380078531,
              41.481316590813
            ],
            [
              -123.1559325529123,
              41.41784960996613
            ],
            [
              -122.1571870703544,
              41.34934173165642
            ],
            [
              -121.5706242925879,
              41.46364137700949
            ],
            [
              -121.1510368916119,
              41.37154976774143
            ],
            [
              -120.3499323520177,
              40.81173380624483
            ],
            [
              -120.0075822458343,
              40.75430184753829
            ],
            [
              -119.9858075471417,
              41.04258069638191
            ],
            [
              -119.8334470117893,
              41.53135897561118
            ],
            [
              -119.5326490124446,
              41.88049407673215
            ],
            [
              -118.5040874253872,
              42.05412897872802
            ],
            [
              -117.8366514201304,
              42.28507540224722
            ],
            [
              -117.3512608126854,
              45.36385389320668
            ],
            [
              -117.2214483303151,
              46.28207838248383
            ],
            [
              -116.3644619801173,
              47.01834732904825
            ],
            [
              -115.8440582629175,
              47.30156271517927
            ],
            [
              -115.1710046544182,
              47.50346257977131
            ],
            [
              -114.8298969315714,
              47.73392064390039
            ],
            [
              -114.6257313456452,
              48.05679249779919
            ],
            [
              -114.6602560125252,
              48.53659904213874
            ],
            [
              -114.7431559479333,
              49.01156354671264
            ],
            [
              -123.2367035944314,
              49.01052768417959
            ],
            [
              -123.1071017096673,
              48.87891919136386
            ],
            [
              -123.1628573492264,
              48.68872671394291
            ],
            [
              -123.2064972516553,
              48.45721430745197
            ],
            [
              -123.3749193957939,
              48.27147419606289
            ],
            [
              -124.032083781179,
              48.29532019778676
            ],
            [
              -124.7698012441872,
              48.46678570344964
            ],
            [
              -124.0534614044073,
              46.56430774656032
            ]
          ]
        ]
      }
    },
    {
      "type": "Feature",
      "properties": {
        "Name": "GreatBasin",
        "color": "#6a1b9a"
      },
      "geometry": {
        "type": "Polygon",
        "coordinates": [
          [
            [
              -119.9944518236026,
              40.74623465748562
            ],
            [
              -120.0011976077372,
              38.99936730011223
            ],
            [
              -114.6337752215446,
              35.00223888192303
            ],
            [
              -114.7035539578753,
              36.11816803469083
            ],
            [
              -114.3937716586803,
              36.11760872850829
            ],
            [
              -114.1711384419717,
              36.00569623719127
            ],
            [
              -114.0390943671114,
              36.20248744661436
            ],
            [
              -114.0436645501527,
              36.99994707527571
            ],
            [
              -107.7898900059518,
              37.0038311495474
            ],
            [
              -107.7541292122549,
              37.875755158971
            ],
            [
              -107.5987690962778,
              38.26438650188948
            ],
            [
              -107.7273070780583,
              38.73203516094085
            ],
            [
              -107.6236247892551,
              39.19256734382557
            ],
            [
              -107.6962361647272,
              39.78845196698769
            ],
            [
              -107.6530536709928,
              40.00392667236752
            ],
            [
              -107.2709966084954,
              40.20588666545982
            ],
            [
              -107.0037827717753,
              40.39076103372867
            ],
            [
              -106.9456590833758,
              40.63198280534021
            ],
            [
              -106.840494732889,
              40.97178824641039
            ],
            [
              -107.177604737478,
              41.38266045360973
            ],
            [
              -108.5510286824464,
              41.45587673541079
            ],
            [
              -108.6034600840571,
              41.58481891911762
            ],
            [
              -108.8616877040219,
              42.26392724293687
            ],
            [
              -108.9536713800728,
              43.29289344802382
            ],
            [
              -108.8844696598706,
              44.36915095556655
            ],
            [
              -108.8087924956707,
              44.66394739278489
            ],
            [
              -108.4794661182884,
              45.00754899072813
            ],
            [
              -105.9883181617781,
              45.01506622074496
            ],
            [
              -106.0825105923104,
              45.75982146515818
            ],
            [
              -106.7545944144989,
              46.46433021331136
            ],
            [
              -107.1839626297449,
              47.07717198099987
            ],
            [
              -108.7767683812506,
              47.50114146211624
            ],
            [
              -109.5044663648045,
              47.64777274756687
            ],
            [
              -110.6845103349676,
              48.04010465482629
            ],
            [
              -111.0631585337022,
              48.39056577561833
            ],
            [
              -111.3074460420768,
              48.99687800421729
            ],
            [
              -114.7274644526384,
              48.99810861992325
            ],
            [
              -114.6539475009167,
              48.56154242901995
            ],
            [
              -114.6116879981091,
              48.05758325464079
            ],
            [
              -114.815052671338,
              47.73390246824652
            ],
            [
              -115.1596415629644,
              47.49448901121701
            ],
            [
              -115.8389743134181,
              47.29978418212301
            ],
            [
              -116.3515291036107,
              47.0146787002388
            ],
            [
              -117.1911851735775,
              46.27298506557726
            ],
            [
              -117.8036343016861,
              42.27792181118252
            ],
            [
              -118.4984400980318,
              42.04741337450064
            ],
            [
              -119.5161980906553,
              41.88062681141404
            ],
            [
              -119.8280126743347,
              41.52536491840292
            ],
            [
              -119.9772541167143,
              41.0371652073342
            ],
            [
              -119.9944518236026,
              40.74623465748562
            ]
          ]
        ]
      }
    },
    {
      "type": "Feature",
      "properties": {
        "Name": "RockyMtn",
        "color": "#e65100"
      },
      "geometry": {
        "type": "Polygon",
        "coordinates": [
          [
            [
              -111.0584802155431,
              48.38873738124973
            ],
            [
              -110.676305506279,
              48.03799931868003
            ],
            [
              -109.5029246364255,
              47.64896099508819
            ],
            [
              -108.7437722538664,
              47.49433672862632
            ],
            [
              -107.169014408569,
              47.07465638793288
            ],
            [
              -106.7401699959978,
              46.47301230814308
            ],
            [
              -106.0745039965738,
              45.76787009825975
            ],
            [
              -105.9699966863912,
              45.01107303060753
            ],
            [
              -108.4709835879345,
              45.00467052022218
            ],
            [
              -108.8049935484177,
              44.66192381665761
            ],
            [
              -108.8778945931879,
              44.36831886159604
            ],
            [
              -108.9437963902051,
              43.30690870302403
            ],
            [
              -108.8558383910425,
              42.26258637342507
            ],
            [
              -108.5450091808135,
              41.46178945528493
            ],
            [
              -107.17549793053,
              41.38198518315032
            ],
            [
              -106.8350402000769,
              40.9728352261226
            ],
            [
              -106.9935356650636,
              40.38921953680322
            ],
            [
              -107.2597546954985,
              40.20638335363724
            ],
            [
              -107.6456238419929,
              40.00456405470937
            ],
            [
              -107.6860051951965,
              39.78598106020169
            ],
            [
              -107.6128550008031,
              39.19293166254059
            ],
            [
              -107.7179185183875,
              38.71870599418716
            ],
            [
              -107.5918242176097,
              38.263041330267
            ],
            [
              -107.7521888685807,
              37.8526090510523
            ],
            [
              -107.7870655957403,
              37.00344322932741
            ],
            [
              -102.0427026706666,
              36.99402120813805
            ],
            [
              -102.0580602406618,
              40.99669480909916
            ],
            [
              -104.0527578421721,
              41.0029987799959
            ],
            [
              -104.0344396751947,
              43.09758725386603
            ],
            [
              -103.4224128352141,
              43.10791611487576
            ],
            [
              -103.3712784689375,
              44.15630517713943
            ],
            [
              -103.0878988870168,
              44.15004486015592
            ],
            [
              -103.1068231010577,
              44.34768568357898
            ],
            [
              -103.3936282669053,
              44.37394234909929
            ],
            [
              -103.4420691981735,
              45.05982987055349
            ],
            [
              -104.0382837707314,
              45.09152799322985
            ],
            [
              -104.0414107138887,
              45.9444776257954
            ],
            [
              -104.4381561574523,
              45.97552222276612
            ],
            [
              -104.470909803889,
              46.08035506536073
            ],
            [
              -104.9036166757924,
              46.11281121324103
            ],
            [
              -104.9134502882273,
              45.95698813846811
            ],
            [
              -105.1479403744705,
              45.97991879473887
            ],
            [
              -105.0306627673475,
              47.67946931062981
            ],
            [
              -105.4058845090848,
              47.70406230514439
            ],
            [
              -105.3945299335224,
              48.83173041951828
            ],
            [
              -105.1398383303146,
              48.83532524506967
            ],
            [
              -105.1217260610327,
              48.69152084628545
            ],
            [
              -104.8849244303536,
              48.6933055808293
            ],
            [
              -104.8887429065931,
              48.83811596908494
            ],
            [
              -104.7688954392334,
              48.8423004073662
            ],
            [
              -104.7708655509051,
              48.99857492621962
            ],
            [
              -111.302241051451,
              48.9961546634774
            ],
            [
              -111.0584802155431,
              48.38873738124973
            ]
          ]
        ]
      }
    },
    {
      "type": "Feature",
      "properties": {
        "Name": "SouthWest",
        "color": "#c62828"
      },
      "geometry": {
        "type": "Polygon",
        "coordinates": [
          [
            [
              -111.0707501652163,
              31.33352070146337
            ],
            [
              -108.2101400627444,
              31.33439105850312
            ],
            [
              -108.2065297491934,
              31.78366226726818
            ],
            [
              -106.5985643641085,
              31.77987502961622
            ],
            [
              -106.6186066945641,
              31.99683343620302
            ],
            [
              -104.2084403970204,
              31.99385637053322
            ],
            [
              -104.298653956897,
              32.34235784961427
            ],
            [
              -104.8712879889887,
              32.84817012059694
            ],
            [
              -104.6610048651309,
              32.84863952415582
            ],
            [
              -104.6437758575171,
              33.25129861583751
            ],
            [
              -104.1618877386334,
              33.53876284974758
            ],
            [
              -104.2087267343617,
              34.1724571689535
            ],
            [
              -104.9575514723116,
              34.17084363259987
            ],
            [
              -104.9659722651048,
              34.38981933332198
            ],
            [
              -104.8035010800861,
              34.52745527400694
            ],
            [
              -104.8590664970786,
              34.9994002070463
            ],
            [
              -104.5002911080101,
              35.00193794303573
            ],
            [
              -104.0747465231896,
              35.71326851197924
            ],
            [
              -103.4986324852118,
              35.21590360156247
            ],
            [
              -103.0327964317381,
              35.51962208012513
            ],
            [
              -103.0022761889253,
              37.0000726978786
            ],
            [
              -114.0427230554746,
              36.99920597869481
            ],
            [
              -114.0365707861606,
              36.19772123653737
            ],
            [
              -114.1726767301091,
              36.00353225240256
            ],
            [
              -114.393431945602,
              36.11747144315242
            ],
            [
              -114.6993165933012,
              36.11303691007917
            ],
            [
              -114.6333271832701,
              35.00211600008324
            ],
            [
              -114.6279484511444,
              34.88858006868217
            ],
            [
              -114.3827529676231,
              34.47197813627941
            ],
            [
              -114.1350982891855,
              34.2738521526264
            ],
            [
              -114.4224957937976,
              34.09075329659268
            ],
            [
              -114.52585533877,
              33.93389624068294
            ],
            [
              -114.5301362240233,
              33.54976143091292
            ],
            [
              -114.7181436653304,
              33.40161157682144
            ],
            [
              -114.6927688902608,
              33.06718952996804
            ],
            [
              -114.4818054830381,
              33.0237192087476
            ],
            [
              -114.5344889345624,
              32.75327405717672
            ],
            [
              -114.7272942047296,
              32.71867217234103
            ],
            [
              -114.8095141984379,
              32.4993941902796
            ],
            [
              -111.0707501652163,
              31.33352070146337
            ]
          ]
        ]
      }
    },
    {
      "type": "Feature",
      "properties": {
        "Name": "California",
        "color": "#f9a825"
      },
      "geometry": {
        "type": "Polygon",
        "coordinates": [
          [
            [
              -120.0029604840002,
              40.74856628834451
            ],
            [
              -120.3523042696259,
              40.8078073155709
            ],
            [
              -121.1512050407665,
              41.36646124071084
            ],
            [
              -121.5665916737183,
              41.45997995682787
            ],
            [
              -122.1571279778005,
              41.34720889912252
            ],
            [
              -123.1778551473337,
              41.4179792815157
            ],
            [
              -123.6241291647541,
              41.47893327985212
            ],
            [
              -124.0613833998588,
              41.47191386260844
            ],
            [
              -124.3785801995179,
              40.36906700523311
            ],
            [
              -123.710151180589,
              38.91672356239614
            ],
            [
              -122.9923550229876,
              38.0123792095857
            ],
            [
              -122.3648204791054,
              37.11928646990734
            ],
            [
              -121.8923829168533,
              36.27705377933683
            ],
            [
              -120.8566609912178,
              35.19287937534057
            ],
            [
              -120.5809271867664,
              34.52056158287517
            ],
            [
              -120.4191861281963,
              34.40171817187552
            ],
            [
              -119.5035582139804,
              34.28951799657661
            ],
            [
              -119.1303168084357,
              34.04379478708642
            ],
            [
              -118.3675249295868,
              33.66594581960391
            ],
            [
              -117.2441593305444,
              32.6839355614353
            ],
            [
              -117.0870422920946,
              32.52535679104995
            ],
            [
              -114.7212589874129,
              32.71831547800564
            ],
            [
              -114.5341609027982,
              32.76027075514698
            ],
            [
              -114.4976083197326,
              33.00913956361632
            ],
            [
              -114.7095019228132,
              33.06485351088411
            ],
            [
              -114.7274561528245,
              33.39954115749983
            ],
            [
              -114.5450164633637,
              33.55722955132254
            ],
            [
              -114.5340101654107,
              33.93648362317782
            ],
            [
              -114.4245330693202,
              34.09864179886505
            ],
            [
              -114.1423345995528,
              34.27410873891375
            ],
            [
              -114.3884717153352,
              34.4699608680571
            ],
            [
              -114.6293310797525,
              34.88590485718908
            ],
            [
              -114.6339768377816,
              35.00172922691497
            ],
            [
              -120.0023293663481,
              38.99896288467141
            ],
            [
              -120.0029604840002,
              40.74856628834451
            ]
          ]
        ]
      }
    }
  ]
}